H1 CPF 01  gfz 2022 10 28 00  8011 terrasarx 
H2 0702601  6201 31698    2022 10 28 00 59 42 2022 11 02 00 00 42   120 1 1  0 0 0
H9
10 0 59883  42462.000000  0    -445724.928  -4282882.708  -5384292.067
10 0 59883  42582.000000  0    -588463.882  -3530536.565  -5892778.574
10 0 59883  42702.000000  0    -707270.618  -2714653.736  -6298307.246
10 0 59883  42822.000000  0    -799109.683  -1849871.380  -6593880.115
10 0 59883  42942.000000  0    -861676.952   -951691.488  -6774406.509
10 0 59883  43062.000000  0    -893450.285    -36205.804  -6836781.981
10 0 59883  43182.000000  0    -893721.924    880187.476  -6779935.018
10 0 59883  43302.000000  0    -862612.826   1781069.653  -6604842.927
10 0 59883  43422.000000  0    -801068.958   2650288.141  -6314516.785
10 0 59883  43542.000000  0    -710839.027   3472240.022  -5913956.563
10 0 59883  43662.000000  0    -594434.133   4232150.109  -5410074.408
10 0 59883  43782.000000  0    -455069.523   4916336.918  -4811586.187
10 0 59883  43902.000000  0    -296590.139   5512464.125  -4128872.339
10 0 59883  44022.000000  0    -123380.590   6009771.567  -3373807.361
10 0 59883  44142.000000  0      59739.023   6399280.008  -2559560.722
10 0 59883  44262.000000  0     247629.177   6673965.801  -1700371.769
10 0 59883  44382.000000  0     434956.340   6828900.488   -811301.241
10 0 59883  44502.000000  0     616325.102   6861350.465     92036.050
10 0 59883  44622.000000  0     786413.743   6770833.591    993751.953
10 0 59883  44742.000000  0     940109.299   6559129.925   1877972.898
10 0 59883  44862.000000  0    1072637.305   6230246.793   2729127.759
10 0 59883  44982.000000  0    1179684.272   5790340.680   3532229.356
10 0 59883  45102.000000  0    1257510.308   5247595.756   4273145.189
10 0 59883  45222.000000  0    1303050.176   4612064.119   4938850.929
10 0 59883  45342.000000  0    1313995.261   3895466.540   5517662.132
10 0 59883  45462.000000  0    1288859.929   3110966.051   5999433.349
10 0 59883  45582.000000  0    1227029.134   2272919.581   6375731.610
10 0 59883  45702.000000  0    1128785.912   1396609.318   6639978.690
10 0 59883  45822.000000  0     995319.200    497959.897   6787559.886
10 0 59883  45942.000000  0     828711.545   -406751.216   6815898.456
10 0 59883  46062.000000  0     631906.793  -1301187.330   6724499.242
10 0 59883  46182.000000  0     408657.946  -2169247.657   6514957.274
10 0 59883  46302.000000  0     163455.836  -2995357.269   6190932.091
10 0 59883  46422.000000  0     -98559.649  -3764748.464   5758086.060
10 0 59883  46542.000000  0    -371703.647  -4463725.279   5223989.226
10 0 59883  46662.000000  0    -649864.482  -5079910.701   4597995.030
10 0 59883  46782.000000  0    -926635.363  -5602475.306   3891084.298
10 0 59883  46902.000000  0   -1195456.529  -6022338.077   3115675.000
10 0 59883  47022.000000  0   -1449763.815  -6332333.240   2285404.471
10 0 59883  47142.000000  0   -1683140.482  -6527342.150   1414888.474
10 0 59883  47262.000000  0   -1889470.111  -6604385.459    519458.335
10 0 59883  47382.000000  0   -2063083.586  -6562671.175   -385117.337
10 0 59883  47502.000000  0   -2198897.662  -6403598.871  -1282919.122
10 0 59883  47622.000000  0   -2292542.062  -6130719.896  -2158165.384
10 0 59883  47742.000000  0   -2340472.023  -5749654.872  -2995497.164
10 0 59883  47862.000000  0   -2340063.106  -5267969.999  -3780253.300
10 0 59883  47982.000000  0   -2289685.719  -4695015.809  -4498728.673
10 0 59883  48102.000000  0   -2188758.153  -4041734.582  -5138410.320
10 0 59883  48222.000000  0   -2037777.749  -3320442.104  -5688188.657
10 0 59883  48342.000000  0   -1838329.873  -2544588.596  -6138541.829
10 0 59883  48462.000000  0   -1593074.076  -1728502.975  -6481690.447
10 0 59883  48582.000000  0   -1305708.383   -887126.659  -6711720.063
10 0 59883  48702.000000  0    -980913.706    -35742.297  -6824672.267
10 0 59883  48822.000000  0    -624278.305    810298.464  -6818604.818
10 0 59883  48942.000000  0    -242202.934   1635844.613  -6693621.196
10 0 59883  49062.000000  0     158210.320   2426209.839  -6451868.926
10 0 59883  49182.000000  0     569285.878   3167428.535  -6097508.783
10 0 59883  49302.000000  0     982918.567   3846500.678  -5636650.888
10 0 59883  49422.000000  0    1390728.842   4451619.386  -5077258.793
10 0 59883  49542.000000  0    1784228.494   4972380.140  -4429024.119
10 0 59883  49662.000000  0    2154994.162   5399967.488  -3703208.934
10 0 59883  49782.000000  0    2494844.412   5727313.206  -2912458.505
10 0 59883  49902.000000  0    2796017.394   5949224.137  -2070587.359
10 0 59883  50022.000000  0    3051345.166   6062475.539  -1192340.069
10 0 59883  50142.000000  0    3254419.421   6065866.276   -293130.616
10 0 59883  50262.000000  0    3399743.843   5960233.128    611233.801
10 0 59883  50382.000000  0    3482869.680   5748423.912   1504837.613
10 0 59883  50502.000000  0    3500511.611   5435231.017   2371944.776
10 0 59883  50622.000000  0    3450639.470   5027286.317   3197284.635
10 0 59883  50742.000000  0    3332544.521   4532917.833   3966328.757
10 0 59883  50862.000000  0    3146879.097   3961974.861   4665550.984
10 0 59883  50982.000000  0    2895665.034   3325625.019   5282669.902
10 0 59883  51102.000000  0    2582273.335   2636127.101   5806861.723
10 0 59883  51222.000000  0    2211379.581   1906589.630   6228945.143
10 0 59883  51342.000000  0    1788892.702   1150716.962   6541537.890
10 0 59883  51462.000000  0    1321857.782    382548.358   6739179.030
10 0 59883  51582.000000  0     818336.670   -383802.254   6818417.872
10 0 59883  51702.000000  0     287268.418  -1134404.849   6777871.990
10 0 59883  51822.000000  0    -261689.708  -1855766.809   6618249.901
10 0 59883  51942.000000  0    -818337.893  -2535075.337   6342338.916
10 0 59883  52062.000000  0   -1372122.277  -3160425.344   5954957.944
10 0 59883  52182.000000  0   -1912332.132  -3721028.717   5462878.113
10 0 59883  52302.000000  0   -2428306.559  -4207404.011   4874712.616
10 0 59883  52422.000000  0   -2909647.389  -4611543.308   4200773.143
10 0 59883  52542.000000  0   -3346432.054  -4927050.973   3452892.901
10 0 59883  52662.000000  0   -3729420.165  -5149250.984   2644219.682
10 0 59883  52782.000000  0   -4050249.658  -5275260.797   1788984.044
10 0 59883  52902.000000  0   -4301619.766  -5304030.124    902245.325
10 0 59883  53022.000000  0   -4477454.963  -5236342.296      -379.818
10 0 59883  53142.000000  0   -4573045.848  -5074778.727   -903000.351
10 0 59883  53262.000000  0   -4585162.911  -4823646.738  -1789740.284
10 0 59883  53382.000000  0   -4512139.381  -4488871.655  -2645027.025
10 0 59883  53502.000000  0   -4353921.663  -4077856.895  -3453871.000
10 0 59883  53622.000000  0   -4112086.842  -3599317.253  -4202130.764
10 0 59883  53742.000000  0   -3789827.824  -3063090.027  -4876759.103
10 0 59883  53862.000000  0   -3391906.860  -2479928.118  -5466026.025
10 0 59883  53982.000000  0   -2924579.018  -1861280.855  -5959714.472
10 0 59883  54102.000000  0   -2395488.563  -1219067.482  -6349287.612
10 0 59883  54222.000000  0   -1813539.172   -565447.338  -6628025.608
10 0 59883  54342.000000  0   -1188741.477     87408.106  -6791129.357
10 0 59883  54462.000000  0    -532042.607    727536.634  -6835793.026
10 0 59883  54582.000000  0     144861.830   1343398.847  -6761247.383
10 0 59883  54702.000000  0     829730.060   1924080.326  -6568771.676
10 0 59883  54822.000000  0    1509990.490   2459481.199  -6261676.458
10 0 59883  54942.000000  0    2172968.033   2940489.890  -5845252.455
10 0 59883  55062.000000  0    2806116.642   3359138.342  -5326688.217
10 0 59883  55182.000000  0    3397254.143   3708735.381  -4714956.920
10 0 59883  55302.000000  0    3934797.266   3983978.551  -4020673.104
10 0 59883  55422.000000  0    4407992.031   4181040.126  -3255918.394
10 0 59883  55542.000000  0    4807134.167   4297625.066  -2434037.886
10 0 59883  55662.000000  0    5123773.090   4332998.741  -1569410.727
10 0 59883  55782.000000  0    5350896.139   4287983.964   -677198.426
10 0 59883  55902.000000  0    5483086.155   4164926.404    226924.859
10 0 59883  56022.000000  0    5516649.426   3967629.744   1127053.372
10 0 59883  56142.000000  0    5449710.977   3701260.343   2007337.799
10 0 59883  56262.000000  0    5282272.912   3372223.499   2852273.478
10 0 59883  56382.000000  0    5016233.447   2988015.942   3646982.161
10 0 59883  56502.000000  0    4655367.250   2557057.219   4377480.708
10 0 59883  56622.000000  0    4205267.885   2088504.059   5030929.008
10 0 59883  56742.000000  0    3673256.322   1592056.132   5595856.800
10 0 59883  56862.000000  0    3068252.730   1077753.386   6062363.556
10 0 59883  56982.000000  0    2400619.332    555770.873   6422285.325
10 0 59883  57102.000000  0    1681978.368     36218.172   6669330.063
10 0 59883  57222.000000  0     925007.443   -471055.048   6799183.353
10 0 59883  57342.000000  0     143213.438   -956645.676   6809579.956
10 0 59883  57462.000000  0    -649309.085  -1411770.855   6700339.831
10 0 59883  57582.000000  0   -1438131.522  -1828426.762   6473370.279
10 0 59883  57702.000000  0   -2208752.284  -2199529.043   6132633.223
10 0 59883  57822.000000  0   -2946861.129  -2519032.936   5684081.695
10 0 59883  57942.000000  0   -3638607.532  -2782034.485   5135564.622
10 0 59883  58062.000000  0   -4270865.936  -2984848.376   4496694.174
10 0 59883  58182.000000  0   -4831489.855  -3125060.271   3778681.190
10 0 59883  58302.000000  0   -5309551.284  -3201552.755   2994141.585
10 0 59883  58422.000000  0   -5695561.061  -3214505.293   2156876.501
10 0 59883  58542.000000  0   -5981665.211  -3165368.079   1281627.216
10 0 59883  58662.000000  0   -6161810.057  -3056808.519    383809.274
10 0 59883  58782.000000  0   -6231872.309  -2892631.650   -520766.342
10 0 59883  58902.000000  0   -6189751.641  -2677677.673  -1416180.970
99
